ORBCOMM FM37            
1 33064U 08031E   25102.92663108  .00003922  00000+0  54702-3 0  9999
2 33064  48.4387 293.8290 0005065  96.6218  45.4807 14.79474261904380
ORBCOMM FM40            
1 33065U 08031F   25102.87061781  .00005756  00000+0  75022-3 0  9998
2 33065  48.4403 279.2045 0006242 109.9763  40.4633 14.81637525904476
VESSELSAT 1             
1 37840U 11058C   25103.19574533  .00000490  00000+0  12220-3 0  9997
2 37840  19.9607 127.1444 0013603 190.9563 169.0545 14.11337391697347
ORBCOMM FM109           
1 40086U 14040A   25102.88416813  .00001563  00000+0  37303-3 0  9999
2 40086  47.0045 324.6837 0001471  28.8577 331.2390 14.58045786571533
ORBCOMM FM107           
1 40087U 14040B   25102.91568781  .00001553  00000+0  37047-3 0  9990
2 40087  47.0061 325.5222 0001400 325.6990  34.3805 14.58105135571659
ORBCOMM FM106           
1 40088U 14040C   25103.15889092  .00002310  00000+0  41868-3 0  9997
2 40088  47.0579 151.6717 0015999 126.6998 233.5365 14.69251994574122
ORBCOMM FM111           
1 40089U 14040D   25103.07366919  .00006401  00000+0  74392-3 0  9990
2 40089  47.0032  10.9871 0030804 241.0357 118.7450 14.85878289580540
ORBCOMM FM104           
1 40090U 14040E   25102.90126474  .00001408  00000+0  35050-3 0  9993
2 40090  47.0070 358.4154 0016930 267.3923  92.5023 14.56526666571106
